{
"type": "FeatureCollection",
"name": "coverage",
"crs": { "type": "name", "properties": { "name": "urn:ogc:def:crs:OGC:1.3:CRS84" } },
"features": [
{ "type": "Feature", "properties": { }, "geometry": { "type": "Polygon", "coordinates": [ [ [ 77.189957001656225, 28.633598902894263 ], [ 77.189914702963733, 28.633585309641042 ], [ 77.189871268248197, 28.633575961838865 ], [ 77.189827122501683, 28.633570950952393 ], [ 77.189782697673394, 28.633570326011235 ], [ 77.189738428443292, 28.6335740931302 ], [ 77.189694747968829, 28.633582215449472 ], [ 77.189652083646735, 28.633594613495266 ], [ 77.189610852931068, 28.633611165957451 ], [ 77.180483352931049, 28.637810965957446 ], [ 77.180458351487573, 28.63782342597122 ], [ 77.177979651487576, 28.639156525971224 ], [ 77.177946694771833, 28.639176108400846 ], [ 77.173622194771838, 28.642002108400845 ], [ 77.173583739207245, 28.642030258964986 ], [ 77.17354848284802, 28.642062325674257 ], [ 77.17351682262553, 28.642097947507754 ], [ 77.173489114984292, 28.64213672341943 ], [ 77.173465671868925, 28.642178216853267 ], [ 77.169040671868927, 28.651082716853271 ], [ 77.169022500058574, 28.651124471473103 ], [ 77.169008649476453, 28.651167851472454 ], [ 77.168999262490644, 28.651212410954795 ], [ 77.168994435588573, 28.651257691899854 ], [ 77.168994218385237, 28.651303228871551 ], [ 77.168998613113231, 28.651348553802162 ], [ 77.169007574599817, 28.651393200803483 ], [ 77.169021010731214, 28.651436710955657 ], [ 77.169038783399415, 28.651478637024322 ], [ 77.169060709921837, 28.65151854805768 ], [ 77.169086564919013, 28.651556033816174 ], [ 77.169116082631291, 28.651590708989293 ], [ 77.169148959650514, 28.651622217156103 ], [ 77.169184858038719, 28.651650234448862 ], [ 77.169223408801713, 28.651674472882004 ], [ 77.176952808801715, 28.656003772882002 ], [ 77.176955835549649, 28.656005452897979 ], [ 77.182465935549644, 28.659036152897993 ], [ 77.18250614586789, 28.659055728578899 ], [ 77.182548103586441, 28.659071208463626 ], [ 77.182591392732462, 28.659082439083122 ], [ 77.182635584133209, 28.65908930909595 ], [ 77.190128784133208, 28.659874609095937 ], [ 77.190149018497337, 28.659876268336852 ], [ 77.206428018497334, 28.66084136833685 ], [ 77.206475031929259, 28.660841690626203 ], [ 77.206521821499337, 28.660837096849573 ], [ 77.206567874558985, 28.660827637338549 ], [ 77.206612686529184, 28.660813415735987 ], [ 77.206655766428852, 28.660794587860472 ], [ 77.206696642254315, 28.660771359999078 ], [ 77.206734866150754, 28.660743986647208 ], [ 77.209378166150756, 28.658633286647213 ], [ 77.20941177615012, 28.658603582592384 ], [ 77.209442255858718, 28.658570674382265 ], [ 77.20946930130205, 28.658534890210841 ], [ 77.209492642755578, 28.658496586954094 ], [ 77.21166774275558, 28.654489786954098 ], [ 77.211686953894997, 28.6544498069551 ], [ 77.211702127966262, 28.654408127034767 ], [ 77.211713116984882, 28.654365153674789 ], [ 77.211719813780888, 28.654321305971077 ], [ 77.211722153044079, 28.654277011546533 ], [ 77.211720111960886, 28.654232702380696 ], [ 77.211713710436868, 28.654188810596864 ], [ 77.210059510436864, 28.64577921059686 ], [ 77.210055732765696, 28.645761830311624 ], [ 77.208910432765691, 28.640953330311625 ], [ 77.208898204197936, 28.640911225152539 ], [ 77.208881928634909, 28.64087051288978 ], [ 77.208861761166006, 28.640831581469445 ], [ 77.208837893966546, 28.640794801868022 ], [ 77.208810554466439, 28.640760524557383 ], [ 77.208780003183065, 28.64072907616513 ], [ 77.208746531238816, 28.640700756362172 ], [ 77.208710457586989, 28.640675835007183 ], [ 77.20867212597247, 28.640654549575103 ], [ 77.208631901656204, 28.640637102894267 ], [ 77.189957001656225, 28.633598902894263 ] ] ] } }
]
}
